start=new Date('2022-11-15T00:00:00.000Z').valueOf();
sats=[{"APOAPSIS":"548.413","MEAN_MOTION_DOT":"0.00000117","REF_FRAME":"TEME","NORAD_CAT_ID":"46172","CLASSIFICATION_TYPE":"U","BSTAR":"0.00002674500000","TLE_LINE2":"2 46172  53.0559 332.7004 0001723  55.1777 304.9374 15.06398064125081","EPHEMERIS_TYPE":"0","MEAN_MOTION":"15.06398064","DECAY_DATE":null,"TIME_SYSTEM":"UTC","OBJECT_TYPE":"PAYLOAD","COUNTRY_CODE":"US","MEAN_ANOMALY":"304.9374","EPOCH":"2022-11-14T18:09:53.173152","TLE_LINE1":"1 46172U 20057BH  22318.75686543  .00000117  00000-0  26745-4 0  9991","MEAN_MOTION_DDOT":"0.0000000000000","MEAN_ELEMENT_THEORY":"SGP4","RCS_SIZE":"LARGE","LAUNCH_DATE":"2020-08-18","SITE":"AFETR","RA_OF_ASC_NODE":"332.7004","SEMIMAJOR_AXIS":"6925.354","OBJECT_ID":"2020-057BH","FILE":"3656014","INCLINATION":"53.0559","OBJECT_NAME":"STARLINK-1635","REV_AT_EPOCH":"12508","ELEMENT_SET_NO":"999","ECCENTRICITY":"0.00017230","CENTER_NAME":"EARTH","ARG_OF_PERICENTER":"55.1777","GP_ID":"217783255","PERIOD":"95.592","PERIAPSIS":"546.026"},{"EPHEMERIS_TYPE":"0","TLE_LINE2":"2 46173  53.0555 352.4997 0001630  53.4457 306.6682 15.06397001123552","DECAY_DATE":null,"TIME_SYSTEM":"UTC","OBJECT_TYPE":"PAYLOAD","COUNTRY_CODE":"US","MEAN_MOTION":"15.06397001","MEAN_MOTION_DOT":"-0.00001788","APOAPSIS":"548.352","BSTAR":"-0.00010114000000","REF_FRAME":"TEME","CLASSIFICATION_TYPE":"U","NORAD_CAT_ID":"46173","REV_AT_EPOCH":"12355","ELEMENT_SET_NO":"999","ECCENTRICITY":"0.00016300","CENTER_NAME":"EARTH","ARG_OF_PERICENTER":"53.4457","INCLINATION":"53.0555","FILE":"3656014","OBJECT_NAME":"STARLINK-1640","PERIAPSIS":"546.094","GP_ID":"217781524","PERIOD":"95.592","MEAN_MOTION_DDOT":"0.0000000000000","MEAN_ELEMENT_THEORY":"SGP4","RCS_SIZE":"LARGE","MEAN_ANOMALY":"306.6682","EPOCH":"2022-11-14T19:16:13.978848","TLE_LINE1":"1 46173U 20057BJ  22318.80293957 -.00001788  00000-0 -10114-3 0  9990","SEMIMAJOR_AXIS":"6925.358","OBJECT_ID":"2020-057BJ","LAUNCH_DATE":"2020-08-18","RA_OF_ASC_NODE":"352.4997","SITE":"AFETR"},{"BSTAR":"-0.00025236000000","CLASSIFICATION_TYPE":"U","REF_FRAME":"TEME","NORAD_CAT_ID":"46174","MEAN_MOTION_DOT":"-0.00004037","APOAPSIS":"548.477","COUNTRY_CODE":"US","OBJECT_TYPE":"PAYLOAD","DECAY_DATE":null,"TIME_SYSTEM":"UTC","MEAN_MOTION":"15.06389367","EPHEMERIS_TYPE":"0","TLE_LINE2":"2 46174  53.0552 353.9565 0001778  51.1452 308.9695 15.06389367123500","SEMIMAJOR_AXIS":"6925.381","OBJECT_ID":"2020-057BK","SITE":"AFETR","RA_OF_ASC_NODE":"353.9565","LAUNCH_DATE":"2020-08-18","RCS_SIZE":"LARGE","MEAN_ELEMENT_THEORY":"SGP4","MEAN_MOTION_DDOT":"0.0000000000000","TLE_LINE1":"1 46174U 20057BK  22318.47858156 -.00004037  00000-0 -25236-3 0  9993","EPOCH":"2022-11-14T11:29:09.446784","MEAN_ANOMALY":"308.9695","PERIAPSIS":"546.015","PERIOD":"95.593","GP_ID":"217737606","ARG_OF_PERICENTER":"51.1452","ELEMENT_SET_NO":"999","ECCENTRICITY":"0.00017780","CENTER_NAME":"EARTH","REV_AT_EPOCH":"12350","OBJECT_NAME":"STARLINK-1641","FILE":"3654975","INCLINATION":"53.0552"},{"OBJECT_ID":"2020-062A","SEMIMAJOR_AXIS":"6925.341","SITE":"AFETR","RA_OF_ASC_NODE":"8.6150","LAUNCH_DATE":"2020-09-03","MEAN_ELEMENT_THEORY":"SGP4","RCS_SIZE":"LARGE","MEAN_MOTION_DDOT":"0.0000000000000","EPOCH":"2022-11-14T13:21:16.538688","TLE_LINE1":"1 46325U 20062A   22318.55644142 -.00000066  00000-0  14443-4 0  9990","MEAN_ANOMALY":"302.1047","PERIAPSIS":"546.009","PERIOD":"95.592","GP_ID":"217790306","ARG_OF_PERICENTER":"58.0110","REV_AT_EPOCH":"12298","ELEMENT_SET_NO":"999","ECCENTRICITY":"0.00017290","CENTER_NAME":"EARTH","OBJECT_NAME":"STARLINK-1734","INCLINATION":"53.0543","FILE":"3656097","BSTAR":"0.00001444300000","NORAD_CAT_ID":"46325","CLASSIFICATION_TYPE":"U","REF_FRAME":"TEME","MEAN_MOTION_DOT":"-0.00000066","APOAPSIS":"548.404","OBJECT_TYPE":"PAYLOAD","COUNTRY_CODE":"US","TIME_SYSTEM":"UTC","DECAY_DATE":null,"MEAN_MOTION":"15.06402347","EPHEMERIS_TYPE":"0","TLE_LINE2":"2 46325  53.0543   8.6150 0001729  58.0110 302.1047 15.06402347122987"},{"INCLINATION":"53.0546","FILE":"3656014","OBJECT_NAME":"STARLINK-1654","ELEMENT_SET_NO":"999","ECCENTRICITY":"0.00014270","CENTER_NAME":"EARTH","REV_AT_EPOCH":"12176","ARG_OF_PERICENTER":"74.1820","GP_ID":"217782036","PERIOD":"95.593","PERIAPSIS":"546.251","MEAN_ANOMALY":"285.9326","TLE_LINE1":"1 46326U 20062B   22318.55416920  .00010681  00000-0  73505-3 0  9998","EPOCH":"2022-11-14T13:18:00.218880","MEAN_MOTION_DDOT":"0.0000000000000","RCS_SIZE":"LARGE","MEAN_ELEMENT_THEORY":"SGP4","LAUNCH_DATE":"2020-09-03","RA_OF_ASC_NODE":"53.8658","SITE":"AFETR","OBJECT_ID":"2020-062B","SEMIMAJOR_AXIS":"6925.374","TLE_LINE2":"2 46326  53.0546  53.8658 0001427  74.1820 285.9326 15.06391703121764","EPHEMERIS_TYPE":"0","MEAN_MOTION":"15.06391703","DECAY_DATE":null,"TIME_SYSTEM":"UTC","COUNTRY_CODE":"US","OBJECT_TYPE":"PAYLOAD","APOAPSIS":"548.227","MEAN_MOTION_DOT":"0.00010681","REF_FRAME":"TEME","CLASSIFICATION_TYPE":"U","NORAD_CAT_ID":"46326","BSTAR":"0.00073505000000"},{"OBJECT_NAME":"STARLINK-1673","INCLINATION":"53.0542","FILE":"3656014","ARG_OF_PERICENTER":"92.7672","REV_AT_EPOCH":"12177","ECCENTRICITY":"0.00012970","ELEMENT_SET_NO":"999","CENTER_NAME":"EARTH","PERIOD":"95.593","GP_ID":"217782286","PERIAPSIS":"546.360","EPOCH":"2022-11-14T15:25:20.640000","TLE_LINE1":"1 46327U 20062C   22318.64260000  .00002669  00000-0  19807-3 0  9997","MEAN_ANOMALY":"267.3465","MEAN_ELEMENT_THEORY":"SGP4","RCS_SIZE":"LARGE","MEAN_MOTION_DDOT":"0.0000000000000","RA_OF_ASC_NODE":"53.2139","SITE":"AFETR","LAUNCH_DATE":"2020-09-03","SEMIMAJOR_AXIS":"6925.393","OBJECT_ID":"2020-062C","TLE_LINE2":"2 46327  53.0542  53.2139 0001297  92.7672 267.3465 15.06385371121778","EPHEMERIS_TYPE":"0","MEAN_MOTION":"15.06385371","OBJECT_TYPE":"PAYLOAD","COUNTRY_CODE":"US","TIME_SYSTEM":"UTC","DECAY_DATE":null,"APOAPSIS":"548.157","MEAN_MOTION_DOT":"0.00002669","REF_FRAME":"TEME","CLASSIFICATION_TYPE":"U","NORAD_CAT_ID":"46327","BSTAR":"0.00019807000000"},{"ARG_OF_PERICENTER":"67.1031","ELEMENT_SET_NO":"999","ECCENTRICITY":"0.00016460","CENTER_NAME":"EARTH","REV_AT_EPOCH":"12205","OBJECT_NAME":"STARLINK-1686","FILE":"3656014","INCLINATION":"53.0550","PERIAPSIS":"546.076","PERIOD":"95.592","GP_ID":"217782537","RCS_SIZE":"LARGE","MEAN_ELEMENT_THEORY":"SGP4","MEAN_MOTION_DDOT":"0.0000000000000","TLE_LINE1":"1 46328U 20062D   22318.62233239  .00001369  00000-0  11081-3 0  9992","EPOCH":"2022-11-14T14:56:09.518496","MEAN_ANOMALY":"293.0132","SEMIMAJOR_AXIS":"6925.351","OBJECT_ID":"2020-062D","SITE":"AFETR","RA_OF_ASC_NODE":"33.3233","LAUNCH_DATE":"2020-09-03","EPHEMERIS_TYPE":"0","TLE_LINE2":"2 46328  53.0550  33.3233 0001646  67.1031 293.0132 15.06399102122051","COUNTRY_CODE":"US","OBJECT_TYPE":"PAYLOAD","TIME_SYSTEM":"UTC","DECAY_DATE":null,"MEAN_MOTION":"15.06399102","MEAN_MOTION_DOT":"0.00001369","APOAPSIS":"548.356","BSTAR":"0.00011081000000","NORAD_CAT_ID":"46328","CLASSIFICATION_TYPE":"U","REF_FRAME":"TEME"},{"MEAN_MOTION":"15.06397982","TIME_SYSTEM":"UTC","DECAY_DATE":null,"OBJECT_TYPE":"PAYLOAD","COUNTRY_CODE":"US","TLE_LINE2":"2 46329  53.0564  33.4763 0001533  75.7436 284.3723 15.06397982122047","EPHEMERIS_TYPE":"0","CLASSIFICATION_TYPE":"U","REF_FRAME":"TEME","NORAD_CAT_ID":"46329","BSTAR":"0.00003495200000","APOAPSIS":"548.281","MEAN_MOTION_DOT":"0.00000239","GP_ID":"217783267","PERIOD":"95.592","PERIAPSIS":"546.158","FILE":"3656014","INCLINATION":"53.0564","OBJECT_NAME":"STARLINK-1695","REV_AT_EPOCH":"12204","ELEMENT_SET_NO":"999","CENTER_NAME":"EARTH","ECCENTRICITY":"0.00015330","ARG_OF_PERICENTER":"75.7436","LAUNCH_DATE":"2020-09-03","RA_OF_ASC_NODE":"33.4763","SITE":"AFETR","SEMIMAJOR_AXIS":"6925.355","OBJECT_ID":"2020-062E","MEAN_ANOMALY":"284.3723","EPOCH":"2022-11-14T14:08:22.670592","TLE_LINE1":"1 46329U 20062E   22318.58915128  .00000239  00000-0  34952-4 0  9990","MEAN_MOTION_DDOT":"0.0000000000000","MEAN_ELEMENT_THEORY":"SGP4","RCS_SIZE":"LARGE"},{"PERIAPSIS":"546.130","GP_ID":"217781536","PERIOD":"95.592","ELEMENT_SET_NO":"999","ECCENTRICITY":"0.00015550","CENTER_NAME":"EARTH","REV_AT_EPOCH":"12207","ARG_OF_PERICENTER":"77.3010","INCLINATION":"53.0558","FILE":"3656014","OBJECT_NAME":"STARLINK-1710","OBJECT_ID":"2020-062F","SEMIMAJOR_AXIS":"6925.342","LAUNCH_DATE":"2020-09-03","SITE":"AFETR","RA_OF_ASC_NODE":"32.9103","MEAN_MOTION_DDOT":"0.0000000000000","RCS_SIZE":"LARGE","MEAN_ELEMENT_THEORY":"SGP4","MEAN_ANOMALY":"282.8153","TLE_LINE1":"1 46330U 20062F   22318.71078919  .00007484  00000-0  52073-3 0  9997","EPOCH":"2022-11-14T17:03:32.186016","DECAY_DATE":null,"TIME_SYSTEM":"UTC","COUNTRY_CODE":"US","OBJECT_TYPE":"PAYLOAD","MEAN_MOTION":"15.06402237","EPHEMERIS_TYPE":"0","TLE_LINE2":"2 46330  53.0558  32.9103 0001555  77.3010 282.8153 15.06402237122077","BSTAR":"0.00052073000000","CLASSIFICATION_TYPE":"U","REF_FRAME":"TEME","NORAD_CAT_ID":"46330","MEAN_MOTION_DOT":"0.00007484","APOAPSIS":"548.284"},{"MEAN_MOTION_DOT":"0.00002572","APOAPSIS":"548.198","BSTAR":"0.00019154000000","NORAD_CAT_ID":"46331","CLASSIFICATION_TYPE":"U","REF_FRAME":"TEME","EPHEMERIS_TYPE":"0","TLE_LINE2":"2 46331  53.0551  53.6398 0001385  99.8726 260.2420 15.06391770121762","OBJECT_TYPE":"PAYLOAD","COUNTRY_CODE":"US","DECAY_DATE":null,"TIME_SYSTEM":"UTC","MEAN_MOTION":"15.06391770","MEAN_ELEMENT_THEORY":"SGP4","RCS_SIZE":"LARGE","MEAN_MOTION_DDOT":"0.0000000000000","EPOCH":"2022-11-14T13:07:20.267904","TLE_LINE1":"1 46331U 20062G   22318.54676236  .00002572  00000-0  19154-3 0  9991","MEAN_ANOMALY":"260.2420","SEMIMAJOR_AXIS":"6925.374","OBJECT_ID":"2020-062G","RA_OF_ASC_NODE":"53.6398","SITE":"AFETR","LAUNCH_DATE":"2020-09-03","ARG_OF_PERICENTER":"99.8726","REV_AT_EPOCH":"12176","ELEMENT_SET_NO":"999","ECCENTRICITY":"0.00013850","CENTER_NAME":"EARTH","OBJECT_NAME":"STARLINK-1719","FILE":"3656014","INCLINATION":"53.0551","PERIAPSIS":"546.280","PERIOD":"95.593","GP_ID":"217781786"}];
